ACS3                    
1 59588U 24077B   24260.68434726  .00024368  00000+0  28017-1 0  9990
2 59588  97.4221 307.6115 0041955 217.3166 142.5069 13.68940173 19914
